1 32789U 08021G   15341.79929992  .00005807  00000-0  45221-3 0  9997
2 32789  97.6273  39.3351 0012131 181.3675 178.7518 15.01548276413114
